*******************************************************************************
Ephemeris / WWW_USER Mon Dec 26 18:25:16 2016 Pasadena, USA      / Horizons    
*******************************************************************************
Target body name: Moon (301)                      {source: DE431mx}
Center body name: Earth (399)                     {source: DE431mx}
Center-site name: (user defined site below)
*******************************************************************************
Start time      : A.D. 2024-May-01 00:00:00.0000 UT      
Stop  time      : A.D. 2024-Sep-02 00:00:00.0000 UT      
Step-size       : 2 minutes
*******************************************************************************
Target pole/equ : IAU_MOON                        {East-longitude +}
Target radii    : 1737.4 x 1737.4 x 1737.4 km     {Equator, meridian, pole}    
Center geodetic : 284.844200,39.9494000,-1.01E-12 {E-lon(deg),Lat(deg),Alt(km)}
Center cylindric: 284.844200,4896.31709,4073.6801 {E-lon(deg),Dxy(km),Dz(km)}
Center pole/equ : High-precision EOP model        {East-longitude +}
Center radii    : 6378.1 x 6378.1 x 6356.8 km     {Equator, meridian, pole}    
Target primary  : Earth
Vis. interferer : MOON (R_eq= 1737.400) km        {source: DE431mx}
Rel. light bend : Sun, EARTH                      {source: DE431mx}
Rel. lght bnd GM: 1.3271E+11, 3.9860E+05 km^3/s^2                              
Atmos refraction: NO (AIRLESS)
RA format       : HMS
Time format     : CAL 
RTS-only print  : NO       
EOP file        : eop.161226.p170319                                           
EOP coverage    : DATA-BASED 1962-JAN-20 TO 2016-DEC-26. PREDICTS-> 2017-MAR-18
Units conversion: 1 au= 149597870.700 km, c= 299792.458 km/s, 1 day= 86400.0 s 
Table cut-offs 1: Elevation (-90.0deg=NO ),Airmass (>38.000=NO), Daylight (NO )
Table cut-offs 2: Solar Elongation (  0.0,180.0=NO ),Local Hour Angle( 0.0=NO )
*******************************************************************************
 Date__(UT)__HR:MN     Azi_(a-appr)_Elev
****************************************
$$SOE
 2024-Jul-19 11:12 *   263.0724 -39.7271
 2024-Jul-19 11:14 *   263.3451 -40.0885
 2024-Jul-19 11:16 *   263.6188 -40.4500
 2024-Jul-19 11:18 *   263.8936 -40.8118
 2024-Jul-19 11:20 *   264.1693 -41.1737
 2024-Jul-19 11:22 *   264.4462 -41.5357
 2024-Jul-19 11:24 *   264.7243 -41.8979
 2024-Jul-19 11:26 *   265.0035 -42.2602
 2024-Jul-19 11:28 *   265.2839 -42.6226
 2024-Jul-19 11:30 *   265.5656 -42.9852
 2024-Jul-19 11:32 *   265.8486 -43.3478
 2024-Jul-19 11:34 *   266.1330 -43.7106
 2024-Jul-19 11:36 *   266.4188 -44.0735
 2024-Jul-19 11:38 *   266.7060 -44.4364
 2024-Jul-19 11:40 *   266.9948 -44.7994
 2024-Jul-19 11:42 *   267.2851 -45.1625
 2024-Jul-19 11:44 *   267.5770 -45.5256
 2024-Jul-19 11:46 *   267.8706 -45.8888
 2024-Jul-19 11:48 *   268.1660 -46.2520
 2024-Jul-19 11:50 *   268.4631 -46.6153
 2024-Jul-19 11:52 *   268.7621 -46.9785
 2024-Jul-19 11:54 *   269.0630 -47.3418
 2024-Jul-19 11:56 *   269.3659 -47.7051
 2024-Jul-19 11:58 *   269.6708 -48.0684
 2024-Jul-19 12:00 *   269.9779 -48.4317
 2024-Jul-19 12:02 *   270.2871 -48.7949
 2024-Jul-19 12:04 *   270.5986 -49.1581
 2024-Jul-19 12:06 *   270.9124 -49.5213
 2024-Jul-19 12:08 *   271.2286 -49.8844
 2024-Jul-19 12:10 *   271.5473 -50.2474
 2024-Jul-19 12:12 *   271.8686 -50.6103
 2024-Jul-19 12:14 *   272.1925 -50.9732
 2024-Jul-19 12:16 *   272.5192 -51.3359
 2024-Jul-19 12:18 *   272.8488 -51.6986
 2024-Jul-19 12:20 *   273.1812 -52.0611
 2024-Jul-19 12:22 *   273.5167 -52.4234
 2024-Jul-19 12:24 *   273.8553 -52.7856
 2024-Jul-19 12:26 *   274.1972 -53.1476
 2024-Jul-19 12:28 *   274.5424 -53.5095
 2024-Jul-19 12:30 *   274.8911 -53.8711
 2024-Jul-19 12:32 *   275.2433 -54.2326
 2024-Jul-19 12:34 *   275.5993 -54.5938
 2024-Jul-19 12:36 *   275.9590 -54.9547
 2024-Jul-19 12:38 *   276.3228 -55.3154
 2024-Jul-19 12:40 *   276.6906 -55.6758
 2024-Jul-19 12:42 *   277.0626 -56.0359
 2024-Jul-19 12:44 *   277.4390 -56.3957
 2024-Jul-19 12:46 *   277.8199 -56.7552
 2024-Jul-19 12:48 *   278.2056 -57.1143
 2024-Jul-19 12:50 *   278.5960 -57.4730
 2024-Jul-19 12:52 *   278.9915 -57.8314
 2024-Jul-19 12:54 *   279.3922 -58.1893
 2024-Jul-19 12:56 *   279.7982 -58.5468
 2024-Jul-19 12:58 *   280.2098 -58.9038
 2024-Jul-19 13:00 *   280.6272 -59.2604
 2024-Jul-19 13:02 *   281.0506 -59.6164
 2024-Jul-19 13:04 *   281.4801 -59.9719
 2024-Jul-19 13:06 *   281.9161 -60.3268
 2024-Jul-19 13:08 *   282.3587 -60.6811
 2024-Jul-19 13:10 *   282.8082 -61.0348
 2024-Jul-19 13:12 *   283.2649 -61.3879
 2024-Jul-19 13:14 *   283.7289 -61.7402
 2024-Jul-19 13:16 *   284.2007 -62.0919
 2024-Jul-19 13:18 *   284.6804 -62.4427
 2024-Jul-19 13:20 *   285.1685 -62.7928
 2024-Jul-19 13:22 *   285.6651 -63.1421
 2024-Jul-19 13:24 *   286.1707 -63.4904
 2024-Jul-19 13:26 *   286.6855 -63.8379
 2024-Jul-19 13:28 *   287.2100 -64.1844
 2024-Jul-19 13:30 *   287.7445 -64.5298
 2024-Jul-19 13:32 *   288.2894 -64.8743
 2024-Jul-19 13:34 *   288.8452 -65.2176
 2024-Jul-19 13:36 *   289.4121 -65.5597
 2024-Jul-19 13:38 *   289.9908 -65.9006
 2024-Jul-19 13:40 *   290.5816 -66.2403
 2024-Jul-19 13:42 *   291.1851 -66.5786
 2024-Jul-19 13:44 *   291.8018 -66.9155
 2024-Jul-19 13:46 *   292.4322 -67.2509
 2024-Jul-19 13:48 *   293.0768 -67.5847
 2024-Jul-19 13:50 *   293.7363 -67.9170
 2024-Jul-19 13:52 *   294.4113 -68.2475
 2024-Jul-19 13:54 *   295.1024 -68.5762
 2024-Jul-19 13:56 *   295.8102 -68.9030
 2024-Jul-19 13:58 *   296.5356 -69.2278
 2024-Jul-19 14:00 *   297.2791 -69.5505
 2024-Jul-19 14:02 *   298.0416 -69.8711
 2024-Jul-19 14:04 *   298.8239 -70.1893
 2024-Jul-19 14:06 *   299.6267 -70.5051
 2024-Jul-19 14:08 *   300.4510 -70.8183
 2024-Jul-19 14:10 *   301.2976 -71.1289
 2024-Jul-19 14:12 *   302.1675 -71.4366
 2024-Jul-19 14:14 *   303.0615 -71.7414
 2024-Jul-19 14:16 *   303.9807 -72.0430
 2024-Jul-19 14:18 *   304.9262 -72.3413
 2024-Jul-19 14:20 *   305.8988 -72.6361
 2024-Jul-19 14:22 *   306.8999 -72.9272
 2024-Jul-19 14:24 *   307.9303 -73.2145
 2024-Jul-19 14:26 *   308.9912 -73.4977
 2024-Jul-19 14:28 *   310.0839 -73.7766
 2024-Jul-19 14:30 *   311.2094 -74.0510
 2024-Jul-19 14:32 *   312.3688 -74.3206
 2024-Jul-19 14:34 *   313.5633 -74.5852
 2024-Jul-19 14:36 *   314.7941 -74.8445
 2024-Jul-19 14:38 *   316.0623 -75.0982
 2024-Jul-19 14:40 *   317.3689 -75.3461
 2024-Jul-19 14:42 *   318.7149 -75.5878
 2024-Jul-19 14:44 *   320.1013 -75.8229
 2024-Jul-19 14:46 *   321.5290 -76.0513
 2024-Jul-19 14:48 *   322.9987 -76.2725
 2024-Jul-19 14:50 *   324.5110 -76.4861
 2024-Jul-19 14:52 *   326.0664 -76.6919
 2024-Jul-19 14:54 *   327.6653 -76.8893
 2024-Jul-19 14:56 *   329.3076 -77.0782
 2024-Jul-19 14:58 *   330.9932 -77.2579
 2024-Jul-19 15:00 *   332.7218 -77.4283
 2024-Jul-19 15:02 *   334.4926 -77.5888
 2024-Jul-19 15:04 *   336.3047 -77.7390
 2024-Jul-19 15:06 *   338.1566 -77.8787
 2024-Jul-19 15:08 *   340.0468 -78.0074
 2024-Jul-19 15:10 *   341.9732 -78.1248
 2024-Jul-19 15:12 *   343.9334 -78.2304
 2024-Jul-19 15:14 *   345.9247 -78.3241
 2024-Jul-19 15:16 *   347.9438 -78.4055
 2024-Jul-19 15:18 *   349.9874 -78.4743
 2024-Jul-19 15:20 *   352.0517 -78.5304
 2024-Jul-19 15:22 *   354.1327 -78.5735
 2024-Jul-19 15:24 *   356.2261 -78.6035
 2024-Jul-19 15:26 *   358.3275 -78.6202
 2024-Jul-19 15:28 *     0.4324 -78.6237
 2024-Jul-19 15:30 *     2.5362 -78.6139
 2024-Jul-19 15:32 *     4.6343 -78.5908
 2024-Jul-19 15:34 *     6.7223 -78.5545
 2024-Jul-19 15:36 *     8.7959 -78.5052
 2024-Jul-19 15:38 *    10.8508 -78.4430
 2024-Jul-19 15:40 *    12.8832 -78.3681
 2024-Jul-19 15:42 *    14.8895 -78.2808
 2024-Jul-19 15:44 *    16.8663 -78.1814
 2024-Jul-19 15:46 *    18.8107 -78.0700
 2024-Jul-19 15:48 *    20.7202 -77.9472
 2024-Jul-19 15:50 *    22.5924 -77.8132
 2024-Jul-19 15:52 *    24.4256 -77.6684
 2024-Jul-19 15:54 *    26.2182 -77.5132
 2024-Jul-19 15:56 *    27.9690 -77.3479
 2024-Jul-19 15:58 *    29.6772 -77.1730
 2024-Jul-19 16:00 *    31.3422 -76.9888
 2024-Jul-19 16:02 *    32.9638 -76.7958
 2024-Jul-19 16:04 *    34.5419 -76.5943
 2024-Jul-19 16:06 *    36.0768 -76.3847
 2024-Jul-19 16:08 *    37.5687 -76.1673
 2024-Jul-19 16:10 *    39.0183 -75.9427
 2024-Jul-19 16:12 *    40.4262 -75.7109
 2024-Jul-19 16:14 *    41.7932 -75.4726
 2024-Jul-19 16:16 *    43.1203 -75.2278
 2024-Jul-19 16:18 *    44.4085 -74.9771
 2024-Jul-19 16:20 *    45.6587 -74.7206
 2024-Jul-19 16:22 *    46.8720 -74.4587
 2024-Jul-19 16:24 *    48.0497 -74.1916
 2024-Jul-19 16:26 *    49.1928 -73.9196
 2024-Jul-19 16:28 *    50.3024 -73.6430
 2024-Jul-19 16:30 *    51.3798 -73.3619
 2024-Jul-19 16:32 *    52.4260 -73.0767
 2024-Jul-19 16:34 *    53.4423 -72.7874
 2024-Jul-19 16:36 *    54.4296 -72.4944
 2024-Jul-19 16:38 *    55.3891 -72.1979
 2024-Jul-19 16:40 *    56.3219 -71.8979
 2024-Jul-19 16:42 *    57.2289 -71.5947
 2024-Jul-19 16:44 *    58.1113 -71.2884
 2024-Jul-19 16:46 *    58.9699 -70.9792
 2024-Jul-19 16:48 *    59.8057 -70.6673
 2024-Jul-19 16:50 *    60.6195 -70.3527
 2024-Jul-19 16:52 *    61.4124 -70.0356
 2024-Jul-19 16:54 *    62.1851 -69.7162
 2024-Jul-19 16:56 *    62.9384 -69.3944
 2024-Jul-19 16:58 *    63.6731 -69.0706
 2024-Jul-19 17:00 *    64.3899 -68.7447
 2024-Jul-19 17:02 *    65.0896 -68.4168
 2024-Jul-19 17:04 *    65.7729 -68.0871
 2024-Jul-19 17:06 *    66.4403 -67.7557
 2024-Jul-19 17:08 *    67.0926 -67.4226
 2024-Jul-19 17:10 *    67.7302 -67.0878
 2024-Jul-19 17:12 *    68.3539 -66.7516
 2024-Jul-19 17:14 *    68.9641 -66.4139
 2024-Jul-19 17:16 *    69.5614 -66.0748
 2024-Jul-19 17:18 *    70.1463 -65.7344
 2024-Jul-19 17:20 *    70.7192 -65.3927
 2024-Jul-19 17:22 *    71.2807 -65.0499
 2024-Jul-19 17:24 *    71.8311 -64.7059
 2024-Jul-19 17:26 *    72.3708 -64.3608
 2024-Jul-19 17:28 *    72.9004 -64.0147
 2024-Jul-19 17:30 *    73.4201 -63.6676
 2024-Jul-19 17:32 *    73.9304 -63.3195
 2024-Jul-19 17:34 *    74.4315 -62.9705
